0 FENGYUN 1C DEB
1 29810U 99025DC  13280.93196596  .00000586  00000-0  26923-3 0  8620
2 29810 099.1376 043.6092 0072651 174.4519 303.6424 14.23878704349814
0 FENGYUN 1C DEB
1 29810U 99025DC  13282.18750712  .00000653  00000-0  29738-3 0  8638
2 29810 099.1376 044.9136 0072672 170.9033 259.4556 14.23882580349992
0 FENGYUN 1C DEB
1 29810U 99025DC  13283.30212932  .00000601  00000-0  27564-3 0  8649
2 29810 099.1378 046.0714 0072718 167.7370 212.9549 14.23884529350159
0 FENGYUN 1C DEB
1 29810U 99025DC  13286.19631093  .00000606  00000-0  27757-3 0  8663
2 29810 099.1385 049.0780 0072803 159.4953 288.4519 14.23888096350566
0 FENGYUN 1C DEB
1 29810U 99025DC  13287.31382906  .00000676  00000-0  30707-3 0  8671
2 29810 099.1388 050.2391 0072819 156.3283 256.8144 14.23889669350728
0 FENGYUN 1C DEB
1 29810U 99025DC  13288.86899112  .00000791  00000-0  35599-3 0  8687
2 29810 099.1393 051.8552 0072857 151.9271 308.5354 14.23893026350944
0 FENGYUN 1C DEB
1 29810U 99025DC  13290.12962319  .00000763  00000-0  34397-3 0  8694
2 29810 099.1394 053.1653 0072858 148.3679 290.5084 14.23895447351125
0 FENGYUN 1C DEB
1 29810U 99025DC  13291.31485910  .00000774  00000-0  34879-3 0  8702
2 29810 099.1394 054.3970 0072864 145.0139 246.0184 14.23897575351291
0 FENGYUN 1C DEB
1 29810U 99025DC  13293.15987447  .00000859  00000-0  38494-3 0  8710
2 29810 099.1394 056.3141 0072898 139.7896 343.5757 14.23900642351558
0 FENGYUN 1C DEB
1 29810U 99025DC  13294.85318141  .00000907  00000-0  40502-3 0  8725
2 29810 099.1393 058.0737 0072921 134.9962 023.4927 14.23904287351793
